{
  "type": "FeatureCollection",
  "features": [
    {
      "type": "Feature",
      "properties": {
        "norad_id": 30066,
        "name": "FENGYUN 1C DEB",
        "group": "fengyun-1c-debris",
        "lat": -58.88933203347565,
        "lon": -8.043946197495627,
        "alt_km": 769.4684886902733,
        "timestamp": "2025-12-12T22:42:12.819246+00:00",
        "meta_object_name": "FENGYUN 1C DEB",
        "meta_object_id": "1999-025PT",
        "meta_epoch": "2025-12-11T23:35:25.979712",
        "meta_mean_motion": 14.19108541,
        "meta_eccentricity": 0.0116708,
        "meta_inclination": 98.6341,
        "meta_ra_of_asc_node": 336.4354,
        "meta_arg_of_pericenter": 264.0914,
        "meta_mean_anomaly": 157.9389,
        "meta_ephemeris_type": 0,
        "meta_classification_type": "U",
        "meta_norad_cat_id": 30066,
        "meta_element_set_no": 999,
        "meta_rev_at_epoch": 97826,
        "meta_bstar": 0.00025347,
        "meta_mean_motion_dot": 5.23e-06,
        "meta_mean_motion_ddot": 0,
        "tle_line1": "1 30066U 99025PT  25345.98293958  .00000523  00000+0  25347-3 0  9995",
        "tle_line2": "2 30066  98.6341 336.4354 0116708 264.0914 157.9389 14.19108541978263"
      },
      "geometry": {
        "type": "Point",
        "coordinates": [
          -8.043946197495627,
          -58.88933203347565
        ]
      }
    },
    {
      "type": "Feature",
      "properties": {
        "norad_id": 30067,
        "name": "FENGYUN 1C DEB",
        "group": "fengyun-1c-debris",
        "lat": -58.155978905964076,
        "lon": 38.65122215004809,
        "alt_km": 833.4775861758881,
        "timestamp": "2025-12-12T22:42:12.819256+00:00",
        "meta_object_name": "FENGYUN 1C DEB",
        "meta_object_id": "1999-025PU",
        "meta_epoch": "2025-12-12T07:08:43.330272",
        "meta_mean_motion": 14.43684414,
        "meta_eccentricity": 0.01519023,
        "meta_inclination": 98.7653,
        "meta_ra_of_asc_node": 232.3675,
        "meta_arg_of_pericenter": 19.4208,
        "meta_mean_anomaly": 93.7133,
        "meta_ephemeris_type": 0,
        "meta_classification_type": "U",
        "meta_norad_cat_id": 30067,
        "meta_element_set_no": 999,
        "meta_rev_at_epoch": 99192,
        "meta_bstar": 0.00066990858,
        "meta_mean_motion_dot": 2.565e-05,
        "meta_mean_motion_ddot": 0,
        "tle_line1": "1 30067U 99025PU  25346.29772373  .00002565  00000+0  66991-3 0  9992",
        "tle_line2": "2 30067  98.7653 232.3675 0151902  19.4208  93.7133 14.43684414991921"
      },
      "geometry": {
        "type": "Point",
        "coordinates": [
          38.65122215004809,
          -58.155978905964076
        ]
      }
    },
    {
      "type": "Feature",
      "properties": {
        "norad_id": 30068,
        "name": "FENGYUN 1C DEB",
        "group": "fengyun-1c-debris",
        "lat": 77.69759591285245,
        "lon": -160.41171656340316,
        "alt_km": 890.6803017050825,
        "timestamp": "2025-12-12T22:42:12.819266+00:00",
        "meta_object_name": "FENGYUN 1C DEB",
        "meta_object_id": "1999-025PV",
        "meta_epoch": "2025-12-11T22:26:15.150048",
        "meta_mean_motion": 14.12046396,
        "meta_eccentricity": 0.0190029,
        "meta_inclination": 98.7365,
        "meta_ra_of_asc_node": 333.7638,
        "meta_arg_of_pericenter": 351.1363,
        "meta_mean_anomaly": 8.647,
        "meta_ephemeris_type": 0,
        "meta_classification_type": "U",
        "meta_norad_cat_id": 30068,
        "meta_element_set_no": 999,
        "meta_rev_at_epoch": 97332,
        "meta_bstar": 0.00032211,
        "meta_mean_motion_dot": 6.56e-06,
        "meta_mean_motion_ddot": 0,
        "tle_line1": "1 30068U 99025PV  25345.93489757  .00000656  00000+0  32211-3 0  9991",
        "tle_line2": "2 30068  98.7365 333.7638 0190029 351.1363   8.6470 14.12046396973328"
      },
      "geometry": {
        "type": "Point",
        "coordinates": [
          -160.41171656340316,
          77.69759591285245
        ]
      }
    },
    {
      "type": "Feature",
      "properties": {
        "norad_id": 30069,
        "name": "FENGYUN 1C DEB",
        "group": "fengyun-1c-debris",
        "lat": 5.602352861400001,
        "lon": 149.65896079713738,
        "alt_km": 896.7886724982809,
        "timestamp": "2025-12-12T22:42:12.819276+00:00",
        "meta_object_name": "FENGYUN 1C DEB",
        "meta_object_id": "1999-025PW",
        "meta_epoch": "2025-12-11T22:12:54.056160",
        "meta_mean_motion": 14.05222392,
        "meta_eccentricity": 0.0049921,
        "meta_inclination": 98.801,
        "meta_ra_of_asc_node": 327.7981,
        "meta_arg_of_pericenter": 55.3898,
        "meta_mean_anomaly": 359.4192,
        "meta_ephemeris_type": 0,
        "meta_classification_type": "U",
        "meta_norad_cat_id": 30069,
        "meta_element_set_no": 999,
        "meta_rev_at_epoch": 96835,
        "meta_bstar": 0.00028603,
        "meta_mean_motion_dot": 4.25e-06,
        "meta_mean_motion_ddot": 0,
        "tle_line1": "1 30069U 99025PW  25345.92562565  .00000425  00000+0  28603-3 0  9994",
        "tle_line2": "2 30069  98.8010 327.7981 0049921  55.3898 359.4192 14.05222392968350"
      },
      "geometry": {
        "type": "Point",
        "coordinates": [
          149.65896079713738,
          5.602352861400001
        ]
      }
    },
    {
      "type": "Feature",
      "properties": {
        "norad_id": 30070,
        "name": "FENGYUN 1C DEB",
        "group": "fengyun-1c-debris",
        "lat": -32.28737560184539,
        "lon": 51.845053618463076,
        "alt_km": 630.9271153299132,
        "timestamp": "2025-12-12T22:42:12.819287+00:00",
        "meta_object_name": "FENGYUN 1C DEB",
        "meta_object_id": "1999-025PX",
        "meta_epoch": "2025-12-10T23:44:55.055040",
        "meta_mean_motion": 14.09883388,
        "meta_eccentricity": 0.0328231,
        "meta_inclination": 98.2864,
        "meta_ra_of_asc_node": 44.7556,
        "meta_arg_of_pericenter": 324.0202,
        "meta_mean_anomaly": 158.2206,
        "meta_ephemeris_type": 0,
        "meta_classification_type": "U",
        "meta_norad_cat_id": 30070,
        "meta_element_set_no": 999,
        "meta_rev_at_epoch": 95854,
        "meta_bstar": 0.002311,
        "meta_mean_motion_dot": 6.681e-05,
        "meta_mean_motion_ddot": 0,
        "tle_line1": "1 30070U 99025PX  25344.98952610  .00006681  00000+0  23110-2 0  9992",
        "tle_line2": "2 30070  98.2864  44.7556 0328231 324.0202 158.2206 14.09883388958549"
      },
      "geometry": {
        "type": "Point",
        "coordinates": [
          51.845053618463076,
          -32.28737560184539
        ]
      }
    },
    {
      "type": "Feature",
      "properties": {
        "norad_id": 30071,
        "name": "FENGYUN 1C DEB",
        "group": "fengyun-1c-debris",
        "lat": -39.192046343926876,
        "lon": -100.92258450432342,
        "alt_km": 734.7632328073232,
        "timestamp": "2025-12-12T22:42:12.819297+00:00",
        "meta_object_name": "FENGYUN 1C DEB",
        "meta_object_id": "1999-025PY",
        "meta_epoch": "2025-12-12T05:18:18.219744",
        "meta_mean_motion": 14.52129345,
        "meta_eccentricity": 0.00393864,
        "meta_inclination": 98.6583,
        "meta_ra_of_asc_node": 85.4671,
        "meta_arg_of_pericenter": 111.3526,
        "meta_mean_anomaly": 280.3019,
        "meta_ephemeris_type": 0,
        "meta_classification_type": "U",
        "meta_norad_cat_id": 30071,
        "meta_element_set_no": 999,
        "meta_rev_at_epoch": 98219,
        "meta_bstar": 0.0039370547,
        "meta_mean_motion_dot": 0.00016097,
        "meta_mean_motion_ddot": 0,
        "tle_line1": "1 30071U 99025PY  25346.22104421  .00016097  00000+0  39371-2 0  9999",
        "tle_line2": "2 30071  98.6583  85.4671 0039386 111.3526 280.3019 14.52129345982199"
      },
      "geometry": {
        "type": "Point",
        "coordinates": [
          -100.92258450432342,
          -39.192046343926876
        ]
      }
    },
    {
      "type": "Feature",
      "properties": {
        "norad_id": 30072,
        "name": "FENGYUN 1C DEB",
        "group": "fengyun-1c-debris",
        "lat": 9.163797877854426,
        "lon": -43.297773784096705,
        "alt_km": 775.5089053923293,
        "timestamp": "2025-12-12T22:42:12.819307+00:00",
        "meta_object_name": "FENGYUN 1C DEB",
        "meta_object_id": "1999-025PZ",
        "meta_epoch": "2025-12-12T06:52:28.740000",
        "meta_mean_motion": 14.37768992,
        "meta_eccentricity": 0.00595996,
        "meta_inclination": 99.0764,
        "meta_ra_of_asc_node": 134.5285,
        "meta_arg_of_pericenter": 273.7547,
        "meta_mean_anomaly": 85.6825,
        "meta_ephemeris_type": 0,
        "meta_classification_type": "U",
        "meta_norad_cat_id": 30072,
        "meta_element_set_no": 999,
        "meta_rev_at_epoch": 97164,
        "meta_bstar": 0.0049470446,
        "meta_mean_motion_dot": 0.00015187,
        "meta_mean_motion_ddot": 0,
        "tle_line1": "1 30072U 99025PZ  25346.28644375  .00015187  00000+0  49470-2 0  9993",
        "tle_line2": "2 30072  99.0764 134.5285 0059599 273.7547  85.6825 14.37768992971646"
      },
      "geometry": {
        "type": "Point",
        "coordinates": [
          -43.297773784096705,
          9.163797877854426
        ]
      }
    }
  ]
}